[{"norad_id":"54655","company":"ONEWEB","tle_line2":"2 54655  87.9180 286.9929 0001013  94.1046 266.0204 13.21824570143061","launch_date":"2022-12-08","type":"LEO","tle_line1":"1 54655U 22166P   25317.61368442  .00000004  00000+0 -22976-4 0  9998","satellite_name":"ONEWEB-0589"},{"norad_id":"54656","company":"ONEWEB","tle_line2":"2 54656  87.9183 286.9945 0001764  69.6618 290.4706 13.21827498143035","launch_date":"2022-12-08","type":"LEO","tle_line1":"1 54656U 22166Q   25317.48684727  .00000220  00000+0  50153-3 0  9997","satellite_name":"ONEWEB-0590"},{"norad_id":"54657","company":"ONEWEB","tle_line2":"2 54657  87.9178 287.0313 0001815  79.6707 280.4631 13.21827729143053","launch_date":"2022-12-08","type":"LEO","tle_line1":"1 54657U 22166R   25317.42281320  .00000094  00000+0  19524-3 0  9990","satellite_name":"ONEWEB-0591"},{"norad_id":"54658","company":"ONEWEB","tle_line2":"2 54658  87.9193 286.9907 0001861  81.9024 278.2321 13.21827836142933","launch_date":"2022-12-08","type":"LEO","tle_line1":"1 54658U 22166S   25317.42609936  .00000099  00000+0  20806-3 0  9998","satellite_name":"ONEWEB-0592"},{"norad_id":"54659","company":"ONEWEB","tle_line2":"2 54659  87.9183 287.0157 0001821  88.7767 271.3576 13.21828726143045","launch_date":"2022-12-08","type":"LEO","tle_line1":"1 54659U 22166T   25317.44913027  .00000056  00000+0  10523-3 0  9998","satellite_name":"ONEWEB-0593"},{"norad_id":"54660","company":"ONEWEB","tle_line2":"2 54660  87.9184 286.9993 0001900  84.3892 275.7459 13.21828133143087","launch_date":"2022-12-08","type":"LEO","tle_line1":"1 54660U 22166U   25317.62027209  .00000196  00000+0  44271-3 0  9990","satellite_name":"ONEWEB-0594"},{"norad_id":"54661","company":"ONEWEB","tle_line2":"2 54661  87.9179 287.0229 0001986  79.7540 280.3818 13.21826172143024","launch_date":"2022-12-08","type":"LEO","tle_line1":"1 54661U 22166V   25317.37014266  .00000054  00000+0  98272-4 0  9996","satellite_name":"ONEWEB-0595"},{"norad_id":"54662","company":"ONEWEB","tle_line2":"2 54662  87.9182 287.0296 0001860  80.6194 279.5150 13.21828522143031","launch_date":"2022-12-08","type":"LEO","tle_line1":"1 54662U 22166W   25317.41950866  .00000027  00000+0  34727-4 0  9992","satellite_name":"ONEWEB-0596"}]